GLOBALSTAR M084         
1 38040U 11080A   25024.59946712 -.00000102  00000+0  76276-5 0  9997
2 38040  52.0005 125.6056 0001096 109.2986 356.2364 12.62273722604536
GLOBALSTAR M080         
1 38041U 11080B   25024.57354913 -.00000107  00000+0 -16851-4 0  9990
2 38041  52.0057 127.2454 0001162  93.0376  11.8263 12.62260619604657
GLOBALSTAR M082         
1 38042U 11080C   25024.43074296 -.00000089  00000+0  79652-4 0  9995
2 38042  52.0079  83.1078 0000611 173.3256 304.4292 12.62272419605342
GLOBALSTAR M092         
1 38043U 11080D   25024.63411299 -.00000087  00000+0  92134-4 0  9994
2 38043  52.0070 172.8568 0001074 104.5436 337.8220 12.62272399603823
GLOBALSTAR M090         
1 38044U 11080E   25024.54391711 -.00000090  00000+0  75038-4 0  9999
2 38044  51.9889  76.7571 0000403 143.4291   8.3443 12.62266020605476
GLOBALSTAR M086         
1 38045U 11080F   25024.48145037 -.00000087  00000+0  91901-4 0  9994
2 38045  51.9902  77.4870 0000740  37.4854  70.7393 12.62266006605419
GLOBALSTAR M097         
1 39072U 13005A   25024.32600041 -.00000089  00000+0  83834-4 0  9996
2 39072  52.0071 352.3623 0000366  32.7454 327.3435 12.62269265552642
GLOBALSTAR M093         
1 39073U 13005B   25024.06139289 -.00000088  00000+0  88697-4 0  9990
2 39073  51.9836 346.6971 0000422  20.7899 339.2985 12.62272190552569
